OBJECT_NAME,OBJECT_ID,EPOCH,MEAN_MOTION,ECCENTRICITY,INCLINATION,RA_OF_ASC_NODE,ARG_OF_PERICENTER,MEAN_ANOMALY,EPHEMERIS_TYPE,CLASSIFICATION_TYPE,NORAD_CAT_ID,ELEMENT_SET_NO,REV_AT_EPOCH,BSTAR,MEAN_MOTION_DOT,MEAN_MOTION_DDOT
GSAT-9,2017-024A,2021-10-02T00:32:22.206336,1.00271237,.0002217,0.0642,90.4483,101.7918,284.1462,0,U,42695,999,1607,0,-.289E-5,0
INMARSAT 5-F4,2017-025A,2021-10-02T06:54:42.660000,1.00269988,.0000278,0.0025,200.1536,130.8139,200.4336,0,U,42698,999,1602,0,.73E-6,0
SES-15,2017-026A,2021-10-02T07:00:52.788960,1.00274834,.0000743,0.0162,356.8351,197.9497,152.5398,0,U,42709,999,1695,0,.56E-6,0
COSMOS 2518,2017-027A,2021-09-30T11:01:02.496288,2.00642628,.6944565,63.0945,120.2643,265.1922,66.7724,0,U,42719,999,3186,0,-.249E-5,0
QZS-2 (MICHIBIKI-2),2017-028A,2021-10-02T07:45:28.166688,1.00258814,.0749179,42.2080,267.8111,270.3892,88.8724,0,U,42738,999,1590,0,-.145E-5,0
VIASAT-2,2017-029A,2021-10-02T06:28:23.433024,1.00269830,.0000316,0.0281,259.7498,57.6205,81.0578,0,U,42740,999,1594,0,-.268E-5,0
EUTELSAT 172B,2017-029B,2021-10-02T05:48:58.460256,1.00272538,.0000243,0.0179,192.1946,126.7351,311.5175,0,U,42741,999,1648,0,-.8E-7,0
GSAT-19,2017-031A,2021-10-02T03:44:54.348576,1.00270832,.0004376,0.0442,94.5602,26.0864,354.5493,0,U,42747,999,1590,0,.122E-5,0
ECHOSTAR 21,2017-032A,2021-10-02T00:15:42.629184,1.00271987,.0002077,4.5329,311.1444,239.2630,194.7507,0,U,42749,999,1587,0,.59E-6,0
LEMUR-2-ANGELA,2017-019B,2021-10-01T21:21:39.430080,15.34520607,.0008583,51.6377,57.9339,203.2929,156.7665,0,U,42752,999,24140,.30323E-3,.9939E-4,0
LEMUR-2-JENNYBARNA,2017-019C,2021-10-02T10:27:46.423008,15.37757559,.0007422,51.6371,40.8558,218.2820,141.7638,0,U,42753,999,24163,.31719E-3,.11584E-3,0
LEMUR-2-ROBMOORE,2017-019D,2021-10-01T22:11:30.078816,15.34418562,.0008444,51.6388,58.8729,205.6697,154.3867,0,U,42754,999,24137,.28885E-3,.9417E-4,0
LEMUR-2-SPIROVISION,2017-019E,2021-10-02T12:46:25.152384,15.37634868,.0007958,51.6392,40.4636,220.3849,217.7551,0,U,42755,999,24156,.33534E-3,.12222E-3,0
HXMT (HUIYAN),2017-034A,2021-10-02T11:16:40.351872,15.09337946,.0007006,43.0184,325.6588,107.5772,24.3591,0,U,42758,999,23718,.74511E-4,.99E-5,0
ZHUHAI-1 02 (CAS-4B),2017-034B,2021-10-02T12:15:07.972416,15.10406173,.0006783,43.0187,312.4480,114.7481,30.2181,0,U,42759,999,23733,.92695E-4,.1329E-4,0
NUSAT-3 (MILANESAT),2017-034C,2021-10-02T10:31:14.803392,15.11014635,.0006581,43.0167,309.2118,143.6924,351.2727,0,U,42760,999,23737,.9142E-4,.1332E-4,0
ZHUHAI-1 01 (CAS-4A),2017-034D,2021-10-02T11:52:13.702656,15.10492592,.0007182,43.0191,311.5120,116.9580,24.4302,0,U,42761,999,23733,.86905E-4,.1235E-4,0
UCLSAT,2017-036A,2021-10-02T01:49:22.996704,15.25391674,.0011512,97.2392,321.2274,152.6836,207.5010,0,U,42765,999,23842,.20254E-3,.5052E-4,0
NIUSAT,2017-036B,2021-10-02T03:39:04.581504,15.23137622,.0015696,97.2404,317.3845,153.7795,206.4240,0,U,42766,999,23745,.13263E-3,.3073E-4,0
CARTOSAT-2E,2017-036C,2021-10-02T11:18:58.298112,15.19226642,.000808,97.4930,333.7292,187.9573,267.7129,0,U,42767,999,23719,.6804E-4,.1365E-4,0
LITUANICASAT-2,2017-036D,2021-10-02T08:54:47.557728,15.27239644,.0014574,97.2473,322.6807,141.9164,218.3108,0,U,42768,999,23778,.26183E-3,.6938E-4,0
CE-SAT-I,2017-036E,2021-10-02T04:31:30.216288,15.21791197,.0014684,97.2361,315.6637,158.8263,201.3599,0,U,42769,999,23730,.58408E-4,.1262E-4,0
LEMUR-2-SHAINAJOHL,2017-036G,2021-10-02T01:14:34.249056,15.25180995,.0014442,97.2423,320.0435,147.9461,212.2659,0,U,42771,999,23755,.24646E-3,.6131E-4,0
LEMUR-2-XUENITERENCE,2017-036H,2021-10-02T02:27:03.085056,15.25388965,.0013979,97.2399,320.1188,145.9071,214.3069,0,U,42772,999,23758,.19475E-3,.4859E-4,0
LEMUR-2-LUCYBRYCE,2017-036J,2021-10-02T01:58:59.520576,15.24503020,.0014249,97.2470,320.7534,146.6400,213.5738,0,U,42773,999,23757,.13115E-3,.3163E-4,0
LEMUR-2-KUNGFOO,2017-036K,2021-10-02T02:15:39.998880,15.25373928,.0013931,97.2423,320.4370,145.8978,214.3158,0,U,42774,999,23757,.24931E-3,.6238E-4,0
AALTO-1,2017-036L,2021-10-02T01:34:03.141696,15.23012876,.0014218,97.2368,317.4915,152.6542,207.5446,0,U,42775,999,23742,.13069E-3,.3014E-4,0
URSA MAIOR,2017-036M,2021-10-02T09:02:21.426432,15.23312793,.0014056,97.2381,318.3214,150.9207,209.2816,0,U,42776,999,23749,.11725E-3,.2721E-4,0
COMPASS 2,2017-036N,2021-10-02T01:35:14.610912,15.26428913,.0012598,97.2457,322.4114,143.6458,216.5639,0,U,42777,999,23767,.28274E-3,.731E-4,0
MAX VALIER SAT,2017-036P,2021-10-02T09:47:33.772128,15.24006764,.0012637,97.2449,320.4738,151.7670,208.4255,0,U,42778,999,23757,.12394E-3,.2939E-4,0
LEMUR-2-LYNSEY-SYMO,2017-036Q,2021-10-02T09:35:38.898528,15.27171273,.0011997,97.2470,324.1016,145.1246,215.0781,0,U,42779,999,23780,.21637E-3,.5703E-4,0
