GSAT-9                  
1 42695U 17024A   21275.02247924 -.00000289  00000-0  00000-0 0  9997
2 42695   0.0642  90.4483 0002217 101.7918 284.1462  1.00271237 16071
INMARSAT 5-F4           
1 42698U 17025A   21275.28799375  .00000073  00000-0  00000+0 0  9990
2 42698   0.0025 200.1536 0000278 130.8139 200.4336  1.00269988 16027
SES-15                  
1 42709U 17026A   21275.29227765  .00000056  00000-0  00000+0 0  9995
2 42709   0.0162 356.8351 0000743 197.9497 152.5398  1.00274834 16957
COSMOS 2518             
1 42719U 17027A   21273.45905667 -.00000249  00000-0  00000+0 0  9992
2 42719  63.0945 120.2643 6944565 265.1922  66.7724  2.00642628 31866
QZS-2 (MICHIBIKI-2)     
1 42738U 17028A   21275.32324267 -.00000145  00000-0  00000+0 0  9998
2 42738  42.2080 267.8111 0749179 270.3892  88.8724  1.00258814 15907
VIASAT-2                
1 42740U 17029A   21275.26971566 -.00000268  00000-0  00000-0 0  9992
2 42740   0.0281 259.7498 0000316  57.6205  81.0578  1.00269830 15946
EUTELSAT 172B           
1 42741U 17029B   21275.24234329 -.00000008  00000-0  00000-0 0  9992
2 42741   0.0179 192.1946 0000243 126.7351 311.5175  1.00272538 16483
GSAT-19                 
1 42747U 17031A   21275.15618459  .00000122  00000-0  00000-0 0  9997
2 42747   0.0442  94.5602 0004376  26.0864 354.5493  1.00270832 15909
ECHOSTAR 21             
1 42749U 17032A   21275.01091006  .00000059  00000-0  00000-0 0  9997
2 42749   4.5329 311.1444 0002077 239.2630 194.7507  1.00271987 15879
LEMUR-2-ANGELA          
1 42752U 17019B   21274.89003970  .00009939  00000-0  30323-3 0  9994
2 42752  51.6377  57.9339 0008583 203.2929 156.7665 15.34520607241408
LEMUR-2-JENNYBARNA      
1 42753U 17019C   21275.43595397  .00011584  00000-0  31719-3 0  9994
2 42753  51.6371  40.8558 0007422 218.2820 141.7638 15.37757559241634
LEMUR-2-ROBMOORE        
1 42754U 17019D   21274.92465369  .00009417  00000-0  28885-3 0  9995
2 42754  51.6388  58.8729 0008444 205.6697 154.3867 15.34418562241379
LEMUR-2-SPIROVISION     
1 42755U 17019E   21275.53223556  .00012222  00000-0  33534-3 0  9999
2 42755  51.6392  40.4636 0007958 220.3849 217.7551 15.37634868241568
HXMT (HUIYAN)           
1 42758U 17034A   21275.46991148  .00000990  00000-0  74511-4 0  9990
2 42758  43.0184 325.6588 0007006 107.5772  24.3591 15.09337946237189
ZHUHAI-1 02 (CAS-4B)    
1 42759U 17034B   21275.51050894  .00001329  00000-0  92695-4 0  9991
2 42759  43.0187 312.4480 0006783 114.7481  30.2181 15.10406173237335
NUSAT-3 (MILANESAT)     
1 42760U 17034C   21275.43836578  .00001332  00000-0  91420-4 0  9994
2 42760  43.0167 309.2118 0006581 143.6924 351.2727 15.11014635237371
ZHUHAI-1 01 (CAS-4A)    
1 42761U 17034D   21275.49460304  .00001235  00000-0  86905-4 0  9995
2 42761  43.0191 311.5120 0007182 116.9580  24.4302 15.10492592237332
UCLSAT                  
1 42765U 17036A   21275.07596061  .00005052  00000-0  20254-3 0  9990
2 42765  97.2392 321.2274 0011512 152.6836 207.5010 15.25391674238427
NIUSAT                  
1 42766U 17036B   21275.15213636  .00003073  00000-0  13263-3 0  9997
2 42766  97.2404 317.3845 0015696 153.7795 206.4240 15.23137622237459
CARTOSAT-2E             
1 42767U 17036C   21275.47150808  .00001365  00000-0  68040-4 0  9990
2 42767  97.4930 333.7292 0008080 187.9573 267.7129 15.19226642237199
LITUANICASAT-2          
1 42768U 17036D   21275.37138377  .00006938  00000-0  26183-3 0  9999
2 42768  97.2473 322.6807 0014574 141.9164 218.3108 15.27239644237789
CE-SAT-I                
1 42769U 17036E   21275.18854417  .00001262  00000-0  58408-4 0  9990
2 42769  97.2361 315.6637 0014684 158.8263 201.3599 15.21791197237302
LEMUR-2-SHAINAJOHL      
1 42771U 17036G   21275.05178529  .00006131  00000-0  24646-3 0  9998
2 42771  97.2423 320.0435 0014442 147.9461 212.2659 15.25180995237558
LEMUR-2-XUENITERENCE    
1 42772U 17036H   21275.10211904  .00004859  00000-0  19475-3 0  9999
2 42772  97.2399 320.1188 0013979 145.9071 214.3069 15.25388965237584
LEMUR-2-LUCYBRYCE       
1 42773U 17036J   21275.08263334  .00003163  00000-0  13115-3 0  9993
2 42773  97.2470 320.7534 0014249 146.6400 213.5738 15.24503020237574
LEMUR-2-KUNGFOO         
1 42774U 17036K   21275.09421295  .00006238  00000-0  24931-3 0  9991
2 42774  97.2423 320.4370 0013931 145.8978 214.3158 15.25373928237574
AALTO-1                 
1 42775U 17036L   21275.06531414  .00003014  00000-0  13069-3 0  9993
2 42775  97.2368 317.4915 0014218 152.6542 207.5446 15.23012876237424
URSA MAIOR              
1 42776U 17036M   21275.37663688  .00002721  00000-0  11725-3 0  9998
2 42776  97.2381 318.3214 0014056 150.9207 209.2816 15.23312793237499
COMPASS 2               
1 42777U 17036N   21275.06614133  .00007310  00000-0  28274-3 0  9992
2 42777  97.2457 322.4114 0012598 143.6458 216.5639 15.26428913237674
MAX VALIER SAT          
1 42778U 17036P   21275.40802977  .00002939  00000-0  12394-3 0  9994
2 42778  97.2449 320.4738 0012637 151.7670 208.4255 15.24006764237573
LEMUR-2-LYNSEY-SYMO     
1 42779U 17036Q   21275.39975577  .00005703  00000-0  21637-3 0  9992
2 42779  97.2470 324.1016 0011997 145.1246 215.0781 15.27171273237807
